NORAD_CAT_ID,OBJECT_NAME,OBJECT_TYPE,EPOCH,MEAN_MOTION,ECCENTRICITY,INCLINATION,RA_OF_ASC_NODE,ARG_OF_PERICENTER,MEAN_ANOMALY,BSTAR,MEAN_MOTION_DOT,MEAN_MOTION_DDOT,TLE_LINE0,TLE_LINE1,TLE_LINE2,SEMIMAJOR_AXIS,PERIOD,APOGEE,PERIGEE,DECAYED
49767.0,STARLINK-3192,PAYLOAD,2022-05-26 22:00:00,15.08831372,0.0001968,53.2193,226.6314,36.7205,135.0176,-0.0015119,-0.00024264,0.0,0 STARLINK-3192,1 49767U 21115AV  22146.91667824 -.00024264  00000-0 -15119-2 0  9990,2 49767  53.2193 226.6314 0001968  36.7205 135.0176 15.08831372  1304,6917.906999999997,95.438,541.133,538.41,0.0
49767.0,STARLINK-3192,PAYLOAD,2022-05-27 14:00:01,15.08815678,0.0002168,53.2197,223.6403,36.6105,158.2796,0.0022912,0.00036341,0.0,0 STARLINK-3192,1 49767U 21115AV  22147.58334491  .00036341  00000-0  22912-2 0  9991,2 49767  53.2197 223.6403 0002168  36.6105 158.2796 15.08815678  1301,6917.955,95.439,541.32,538.32,0.0
49767.0,STARLINK-3192,PAYLOAD,2022-05-27 16:00:00,15.08811639,0.0002172,53.2196,223.2663,35.5611,252.2253,0.0035135,0.00056031,0.0,0 STARLINK-3192,1 49767U 21115AV  22147.66667824  .00056031  00000-0  35135-2 0  9998,2 49767  53.2196 223.2663 0002172  35.5611 252.2253 15.08811639 28157,6917.967,95.439,541.335,538.3290000000002,0.0
49767.0,STARLINK-3192,PAYLOAD,2022-05-27 22:00:01,15.08851342,0.0002042,53.2197,222.1427,37.3397,169.1933,-0.00084546,-0.00013723,0.0,0 STARLINK-3192,1 49767U 21115AV  22147.91668981 -.00013723  00000-0 -84546-3 0  9995,2 49767  53.2197 222.1427 0002042  37.3397 169.1933 15.08851342  1305,6917.846,95.437,541.123,538.298,0.0
49767.0,STARLINK-3192,PAYLOAD,2022-05-28 14:00:01,15.08825417,0.0002181,53.2199,219.1516,34.0965,195.6001,0.0026269,0.00041751,0.0,0 STARLINK-3192,1 49767U 21115AV  22148.58334491  .00041751  00000-0  26269-2 0  9992,2 49767  53.2199 219.1516 0002181  34.0965 195.6001 15.08825417 28292,6917.925,95.438,541.299,538.281,0.0
49767.0,STARLINK-3192,PAYLOAD,2022-05-28 22:00:00,15.088616,0.0002039,53.2199,217.6539,35.8159,205.4752,-0.00038184,-6.364e-05,0.0,0 STARLINK-3192,1 49767U 21115AV  22148.91667824 -.00006364  00000-0 -38184-3 0  9991,2 49767  53.2199 217.6539 0002039  35.8159 205.4752 15.08861600  1306,6917.814,95.436,541.09,538.269,0.0
49767.0,STARLINK-3192,PAYLOAD,2022-05-29 06:00:02,15.08862167,0.0002008,53.2201,216.1576,40.3454,212.604,-0.0026215,-0.00041794,0.0,0 STARLINK-3192,1 49767U 21115AV  22149.25002315 -.00041794  00000-0 -26215-2 0  9994,2 49767  53.2201 216.1576 0002008  40.3454 212.6040 15.08862167 28397,6917.813,95.436,541.067,538.289,0.0
49767.0,STARLINK-3192,PAYLOAD,2022-05-29 14:00:01,15.08827453,0.0002204,53.2199,214.663,35.7706,228.7213,-0.00097844,-0.00015821,0.0,0 STARLINK-3192,1 49767U 21115AV  22149.58334491 -.00015821  00000-0 -97844-3 0  9992,2 49767  53.2199 214.6630 0002204  35.7706 228.7213 15.08827453  1304,6917.919,95.438,541.308,538.259,0.0
49767.0,STARLINK-3192,PAYLOAD,2022-05-29 20:46:54,15.08818575,0.0002038,53.2189,213.3916,42.5604,317.5545,0.00020673,3.002e-05,0.0,0 STARLINK-3192,1 49767U 21115AV  22149.86591212  .00003002  00000-0  20673-3 0  9991,2 49767  53.2189 213.3916 0002038  42.5604 317.5545 15.08818575 27379,6917.946,95.439,541.221,538.401,0.0
49767.0,STARLINK-3192,PAYLOAD,2022-05-30 06:00:00,15.0881134,0.0001956,53.2198,211.6692,38.293,249.3154,0.0014501,0.00022848,0.0,0 STARLINK-3192,1 49767U 21115AV  22150.25001157  .00022848  00000-0  14501-2 0  9991,2 49767  53.2198 211.6692 0001956  38.2930 249.3154 15.08811340 28544,6917.968000000003,95.439,541.186,538.48,0.0
49767.0,STARLINK-3192,PAYLOAD,2022-05-30 14:00:01,15.08801619,0.000219,53.2193,210.1745,35.1546,264.0247,0.0026621,0.0004229,0.0,0 STARLINK-3192,1 49767U 21115AV  22150.58334491  .00042290  00000-0  26621-2 0  9996,2 49767  53.2193 210.1745 0002190  35.1546 264.0247 15.08801619  1302,6917.998000000001,95.44,541.378,538.3480000000002,0.0
49767.0,STARLINK-3192,PAYLOAD,2022-05-30 20:37:42,15.08828767,0.0002115,53.2201,208.9329,42.6049,317.5107,-8.3181e-05,-1.611e-05,0.0,0 STARLINK-3192,1 49767U 21115AV  22150.85952156 -.00001611  00000-0 -83181-4 0  9990,2 49767  53.2201 208.9329 0002115  42.6049 317.5107 15.08828767 28630,6917.915,95.438,541.243,538.317,0.0
49767.0,STARLINK-3192,PAYLOAD,2022-05-31 06:00:02,15.08844918,0.0001979,53.2192,207.1808,39.8731,282.5077,-0.001118,-0.0001804,0.0,0 STARLINK-3192,1 49767U 21115AV  22151.25002315 -.00018040  00000-0 -11180-2 0  9990,2 49767  53.2192 207.1808 0001979  39.8731 282.5077 15.08844918  1303,6917.865,95.437,541.099,538.361,0.0
49767.0,STARLINK-3192,PAYLOAD,2022-05-31 20:28:29,15.088313500000002,0.0002192,53.221,204.473,44.8832,315.2337,1.6275999999999998e-05,-2.9e-07,0.0,0 STARLINK-3192,1 49767U 21115AV  22151.85312447 -.00000029  00000-0  16276-4 0  9996,2 49767  53.2210 204.4730 0002192  44.8832 315.2337 15.08831350 27671,6917.906999999997,95.438,541.288,538.255,0.0
49767.0,STARLINK-3192,PAYLOAD,2022-06-01 06:00:00,15.0885857,0.0002026,53.2184,202.6923,40.7886,316.2958,-0.0014663,-0.00023561,0.0,0 STARLINK-3192,1 49767U 21115AV  22152.25001157 -.00023561  00000-0 -14663-2 0  9997,2 49767  53.2184 202.6923 0002026  40.7886 316.2958 15.08858570 28848,6917.824000000001,95.436,541.09,538.2869999999998,0.0
49767.0,STARLINK-3192,PAYLOAD,2022-06-01 20:00:01,15.08835806,0.0002145,53.2175,200.0624,38.8451,248.6243,3.0455e-05,1.96e-06,0.0,0 STARLINK-3192,1 49767U 21115AV  22152.83334491  .00000196  00000-0  30455-4 0  9997,2 49767  53.2175 200.0624 0002145  38.8451 248.6243 15.08835806 28938,6917.893,95.438,541.242,538.274,0.0
49767.0,STARLINK-3192,PAYLOAD,2022-06-02 20:10:03,15.08846383,0.0002179,53.2205,195.5527,40.6893,319.4261,0.00011993,1.621e-05,0.0,0 STARLINK-3192,1 49767U 21115AV  22153.84031937  .00001621  00000-0  11993-3 0  9997,2 49767  53.2205 195.5527 0002179  40.6893 319.4261 15.08846383 29086,6917.861,95.437,541.2330000000002,538.2180000000002,0.0
49767.0,STARLINK-3192,PAYLOAD,2022-06-03 08:53:08,15.08851246,0.0002191,53.2206,193.174,41.2066,318.9092,0.00011561,1.553e-05,0.0,0 STARLINK-3192,1 49767U 21115AV  22154.37023361  .00001553  00000-0  11561-3 0  9993,2 49767  53.2206 193.1740 0002191  41.2066 318.9092 15.08851246 28057,6917.846,95.437,541.227,538.195,0.0
49767.0,STARLINK-3192,PAYLOAD,2022-06-04 08:43:56,15.08838424,0.0002228,53.2203,188.7143,40.259,319.8567,-5.6809e-05,-1.192e-05,0.0,0 STARLINK-3192,1 49767U 21115AV  22155.36384428 -.00001192  00000-0 -56809-4 0  9993,2 49767  53.2203 188.7143 0002228  40.2590 319.8567 15.08838424 29313,6917.885,95.438,541.2919999999998,538.2090000000002,0.0
49767.0,STARLINK-3192,PAYLOAD,2022-06-05 22:00:00,15.08819587,0.0002254,53.2191,181.7433,40.7417,118.6888,0.0022855,0.00036253,0.0,0 STARLINK-3192,1 49767U 21115AV  22156.91667824  .00036253  00000-0  22855-2 0  9995,2 49767  53.2191 181.7433 0002254  40.7417 118.6888 15.08819587 29541,6917.943,95.439,541.367,538.248,0.0
49767.0,STARLINK-3192,PAYLOAD,2022-06-06 14:00:01,15.08837587,0.0002487,53.219,178.7524,38.2564,144.3587,0.00079533,0.00012392,0.0,0 STARLINK-3192,1 49767U 21115AV  22157.58334491  .00012392  00000-0  79533-3 0  9994,2 49767  53.2190 178.7524 0002487  38.2564 144.3587 15.08837587 29643,6917.888000000001,95.438,541.4730000000002,538.0319999999998,0.0
49767.0,STARLINK-3192,PAYLOAD,2022-06-06 20:00:01,15.08835684,0.0002292,53.2193,177.6288,41.6994,59.6202,0.00065503,0.00010151,0.0,0 STARLINK-3192,1 49767U 21115AV  22157.83334491  .00010151  00000-0  65503-3 0  9995,2 49767  53.2193 177.6288 0002292  41.6994  59.6202 15.08835684  1301,6917.894,95.438,541.344,538.173,0.0
49767.0,STARLINK-3192,PAYLOAD,2022-06-07 09:51:40,15.08840965,0.0002361,53.2199,175.0365,42.5449,317.5725,6.1846e-05,6.96e-06,0.0,0 STARLINK-3192,1 49767U 21115AV  22158.41088222  .00000696  00000-0  61846-4 0  9998,2 49767  53.2199 175.0365 0002361  42.5449 317.5725 15.08840965 29772,6917.877,95.437,541.376,538.109,0.0
49767.0,STARLINK-3192,PAYLOAD,2022-06-07 17:48:35,15.08841905,0.0002381,53.2198,173.5497,43.2347,316.8831,6.8937e-05,8.09e-06,0.0,0 STARLINK-3192,1 49767U 21115AV  22158.74208148  .00000809  00000-0  68937-4 0  9999,2 49767  53.2198 173.5497 0002381  43.2347 316.8831 15.08841905 28715,6917.875,95.437,541.387,538.092,0.0
49767.0,STARLINK-3192,PAYLOAD,2022-06-08 11:17:49,15.08846407,0.0002409,53.2197,170.2788,43.9769,316.1415,7.1895e-05,8.56e-06,0.0,0 STARLINK-3192,1 49767U 21115AV  22159.47071715  .00000856  00000-0  71895-4 0  9997,2 49767  53.2197 170.2788 0002409  43.9769 316.1415 15.08846407 29935,6917.861,95.437,541.3919999999998,538.059,0.0
49767.0,STARLINK-3192,PAYLOAD,2022-06-08 17:39:22,15.08847572,0.0002426,53.2198,169.0895,44.2838,315.8348,7.7408e-05,9.44e-06,0.0,0 STARLINK-3192,1 49767U 21115AV  22159.73567521  .00000944  00000-0  77408-4 0  9995,2 49767  53.2198 169.0895 0002426  44.2838 315.8348 15.08847572 28867,6917.857,95.437,541.401,538.044,0.0
49767.0,STARLINK-3192,PAYLOAD,2022-06-09 09:33:13,15.08848633,0.0002456,53.22,166.1161,45.8035,314.3158,5.7237e-05,6.23e-06,0.0,0 STARLINK-3192,1 49767U 21115AV  22160.39807233  .00000623  00000-0  57237-4 0  9998,2 49767  53.2200 166.1161 0002456  45.8035 314.3158 15.08848633 28967,6917.854,95.437,541.418,538.02,0.0
49767.0,STARLINK-3192,PAYLOAD,2022-06-09 17:30:10,15.08835251,0.0002481,53.22,164.6293,45.2341,314.8853,-5.0328e-05,-1.089e-05,0.0,0 STARLINK-3192,1 49767U 21115AV  22160.72928673 -.00001089  00000-0 -50328-4 0  9990,2 49767  53.2200 164.6293 0002481  45.2341 314.8853 15.08835251 30128,6917.895,95.438,541.476,538.044,0.0
49767.0,STARLINK-3192,PAYLOAD,2022-06-10 09:24:01,15.08837779,0.0002478,53.2208,161.6558,45.4951,314.6244,-3.924e-05,-9.13e-06,0.0,0 STARLINK-3192,1 49767U 21115AV  22161.39168585 -.00000913  00000-0 -39240-4 0  9997,2 49767  53.2208 161.6558 0002478  45.4951 314.6244 15.08837779 29118,6917.887,95.438,541.466,538.038,0.0
